[{"OBJECT_NAME":"DONGPO 08","OBJECT_ID":"2022-167E","EPOCH":"2026-03-09T22:57:52.742880","MEAN_MOTION":15.31542505,"ECCENTRICITY":0.00092155,"INCLINATION":97.6764,"RA_OF_ASC_NODE":233.3854,"ARG_OF_PERICENTER":153.9158,"MEAN_ANOMALY":206.2548,"EPHEMERIS_TYPE":0,"CLASSIFICATION_TYPE":"U","NORAD_CAT_ID":54686,"ELEMENT_SET_NO":999,"REV_AT_EPOCH":18012,"BSTAR":0.0004734784,"MEAN_MOTION_DOT":0.0001437,"MEAN_MOTION_DDOT":0},{"OBJECT_NAME":"STARLINK-35797","OBJECT_ID":"2025-254S","EPOCH":"2026-03-09T18:16:18.375456","MEAN_MOTION":15.30198099,"ECCENTRICITY":0.00012036,"INCLINATION":53.159,"RA_OF_ASC_NODE":232.3333,"ARG_OF_PERICENTER":68.2693,"MEAN_ANOMALY":291.8436,"EPHEMERIS_TYPE":0,"CLASSIFICATION_TYPE":"U","NORAD_CAT_ID":66364,"ELEMENT_SET_NO":999,"REV_AT_EPOCH":1898,"BSTAR":0.0012161336,"MEAN_MOTION_DOT":0.00035831,"MEAN_MOTION_DDOT":0}]
